NORAD_CAT_ID,OBJECT_NAME,OBJECT_TYPE,EPOCH,MEAN_MOTION,ECCENTRICITY,INCLINATION,RA_OF_ASC_NODE,ARG_OF_PERICENTER,MEAN_ANOMALY,BSTAR,MEAN_MOTION_DOT,MEAN_MOTION_DDOT,TLE_LINE0,TLE_LINE1,TLE_LINE2,SEMIMAJOR_AXIS,PERIOD,APOGEE,PERIGEE,DECAYED
53632.0,STARLINK-4606,PAYLOAD,2023-02-14 03:41:43,15.08846186,0.0002072,53.2166,209.8897,85.8739,274.249,0.00089751,0.00014027,0.0,0 STARLINK-4606,1 53632U 22104AW  23045.15397448  .00014027  00000-0  89751-3 0  9990,2 53632  53.2166 209.8897 0002072  85.8739 274.2490 15.08846186 26191,6917.861,95.437,541.16,538.293,0.0
53632.0,STARLINK-4606,PAYLOAD,2023-02-14 18:00:11,15.08854965,0.0002221,53.2158,207.2144,86.2532,273.8715,0.0012144,0.000191,0.0,0 STARLINK-4606,1 53632U 22104AW  23045.75013263  .00019100  00000-0  12144-2 0  9994,2 53632  53.2158 207.2144 0002221  86.2532 273.8715 15.08854965 27304,6917.835,95.437,541.236,538.163,0.0
53632.0,STARLINK-4606,PAYLOAD,2023-02-14 21:10:57,15.08849736,0.0001298,53.2164,206.6205,84.4862,275.6278,0.00056968,8.793e-05,0.0,0 STARLINK-4606,1 53632U 22104AW  23045.88261119  .00008793  00000-0  56968-3 0  9992,2 53632  53.2164 206.6205 0001298  84.4862 275.6278 15.08849736 26304,6917.851,95.437,540.614,538.818,0.0
53632.0,STARLINK-4606,PAYLOAD,2023-02-15 22:37:07,15.08857132,0.0001492,53.2155,201.8607,72.7836,287.332,0.00059756,9.239e-05,0.0,0 STARLINK-4606,1 53632U 22104AW  23046.94244661  .00009239  00000-0  59756-3 0  9997,2 53632  53.2155 201.8607 0001492  72.7836 287.3320 15.08857132 26468,6917.828,95.436,540.725,538.661,0.0
53632.0,STARLINK-4606,PAYLOAD,2023-02-16 16:06:21,15.08847604,0.0001543,53.2141,198.5893,90.1788,269.9381,0.00039923,6.073e-05,0.0,0 STARLINK-4606,1 53632U 22104AW  23047.67108512  .00006073  00000-0  39923-3 0  9999,2 53632  53.2141 198.5893 0001543  90.1788 269.9381 15.08847604 27590,6917.857,95.437,540.79,538.655,0.0
53632.0,STARLINK-4606,PAYLOAD,2023-02-16 22:27:54,15.08855536,0.0002291,53.212,197.3985,98.3558,261.7694,0.00060585,9.371e-05,0.0,0 STARLINK-4606,1 53632U 22104AW  23047.93604375  .00009371  00000-0  60585-3 0  9998,2 53632  53.2120 197.3985 0002291  98.3558 261.7694 15.08855536 26614,6917.833,95.437,541.283,538.113,0.0
53632.0,STARLINK-4606,PAYLOAD,2023-02-17 15:57:09,15.08820789,1.3e-05,53.2166,194.1316,68.6202,291.4804,-0.00025694,-4.372e-05,0.0,0 STARLINK-4606,1 53632U 22104AW  23048.66469669 -.00004372  00000-0 -25694-3 0  9994,2 53632  53.2166 194.1316 0000130  68.6202 291.4804 15.08820789 26720,6917.939,95.439,539.894,539.714,0.0
53632.0,STARLINK-4606,PAYLOAD,2023-02-17 20:43:19,15.08825824,0.0002111,53.2115,193.2382,89.1986,270.9248,-5.5339e-05,-1.169e-05,0.0,0 STARLINK-4606,1 53632U 22104AW  23048.86341665 -.00001169  00000-0 -55339-4 0  9992,2 53632  53.2115 193.2382 0002111  89.1986 270.9248 15.08825824 27770,6917.924,95.438,541.249,538.328,0.0
53632.0,STARLINK-4606,PAYLOAD,2023-02-18 09:26:24,15.08828231,0.0001804,53.2123,190.8588,95.401,264.7188,0.00027549,4.098e-05,0.0,0 STARLINK-4606,1 53632U 22104AW  23049.39334211  .00004098  00000-0  27549-3 0  9993,2 53632  53.2123 190.8588 0001804  95.4010 264.7188 15.08828231 26831,6917.916,95.438,541.029,538.533,0.0
53632.0,STARLINK-4606,PAYLOAD,2023-02-19 14:03:21,15.08844703,0.0001404,53.2152,185.5101,71.2756,288.8388,0.00043487,6.641e-05,0.0,0 STARLINK-4606,1 53632U 22104AW  23050.58566400  .00006641  00000-0  43487-3 0  9998,2 53632  53.2152 185.5101 0001404  71.2756 288.8388 15.08844703 28035,6917.866,95.437,540.702,538.76,0.0
53632.0,STARLINK-4606,PAYLOAD,2023-02-19 15:38:44,15.08850157,0.0001331,53.2152,185.2117,79.1748,280.9394,0.0005472,8.434e-05,0.0,0 STARLINK-4606,1 53632U 22104AW  23050.65190198  .00008434  00000-0  54720-3 0  9997,2 53632  53.2152 185.2117 0001331  79.1748 280.9394 15.08850157 27024,6917.849,95.437,540.635,538.794,0.0
53632.0,STARLINK-4606,PAYLOAD,2023-02-20 13:54:08,15.08845704,0.000127,53.2171,181.0487,79.6278,280.4857,0.00011872,1.602e-05,0.0,0 STARLINK-4606,1 53632U 22104AW  23051.57926011  .00001602  00000-0  11872-3 0  9991,2 53632  53.2171 181.0487 0001270  79.6278 280.4857 15.08845704 28183,6917.863,95.437,540.607,538.849,0.0
53632.0,STARLINK-4606,PAYLOAD,2023-02-20 20:15:39,15.08861891,0.0001311,53.2178,179.857,78.7391,281.3748,0.00042973,6.562e-05,0.0,0 STARLINK-4606,1 53632U 22104AW  23051.84421274  .00006562  00000-0  42973-3 0  9998,2 53632  53.2178 179.8570 0001311  78.7391 281.3748 15.08861891 27206,6917.813,95.436,540.585,538.772,0.0
53632.0,STARLINK-4606,PAYLOAD,2023-02-21 12:09:31,15.08840053,0.0001295,53.2177,176.8881,64.7104,295.4023,1.1212e-05,-1.09e-06,0.0,0 STARLINK-4606,1 53632U 22104AW  23052.50661928 -.00000109  00000-0  11212-4 0  9999,2 53632  53.2177 176.8881 0001295  64.7104 295.4023 15.08840053 27305,6917.88,95.438,540.641,538.849,0.0
53632.0,STARLINK-4606,PAYLOAD,2023-02-21 18:31:03,15.08863302,0.0001344,53.2174,175.6966,92.0065,268.1081,0.00054614,8.42e-05,0.0,0 STARLINK-4606,1 53632U 22104AW  23052.77156977  .00008420  00000-0  54614-3 0  9996,2 53632  53.2174 175.6966 0001344  92.0065 268.1081 15.08863302 27345,6917.809,95.436,540.604,538.744,0.0
53632.0,STARLINK-4606,PAYLOAD,2023-02-22 00:52:36,15.08850343,0.0001744,53.2175,174.5047,76.1077,284.0109,0.00027362,4.07e-05,0.0,0 STARLINK-4606,1 53632U 22104AW  23053.03653497  .00004070  00000-0  27362-3 0  9992,2 53632  53.2175 174.5047 0001744  76.1077 284.0109 15.08850343 27387,6917.849,95.437,540.92,538.507,0.0
53632.0,STARLINK-4606,PAYLOAD,2023-02-22 13:35:41,15.08842622,0.0001523,53.219,172.1312,95.1484,264.9682,7.5514e-06,-1.68e-06,0.0,0 STARLINK-4606,1 53632U 22104AW  23053.56645537 -.00000168  00000-0  75514-5 0  9995,2 53632  53.2190 172.1312 0001523  95.1484 264.9682 15.08842622 28487,6917.872,95.437,540.791,538.684,0.0
53632.0,STARLINK-4606,PAYLOAD,2023-02-22 19:57:13,15.08856721,0.0001224,53.2172,170.9381,85.467,274.6462,0.00080564,0.00012563,0.0,0 STARLINK-4606,1 53632U 22104AW  23053.83141185  .00012563  00000-0  80564-3 0  9995,2 53632  53.2172 170.9381 0001224  85.4670 274.6462 15.08856721 28520,6917.829,95.436,540.541,538.848,0.0
53632.0,STARLINK-4606,PAYLOAD,2023-02-23 00:43:23,15.08832063,0.0001017,53.2173,170.0456,89.2323,270.8785,5.1193e-05,5.27e-06,0.0,0 STARLINK-4606,1 53632U 22104AW  23054.03013771  .00000527  00000-0  51193-4 0  9991,2 53632  53.2173 170.0456 0001017  89.2323 270.8785 15.08832063 27531,6917.905,95.438,540.473,539.066,0.0
53632.0,STARLINK-4606,PAYLOAD,2023-02-23 11:51:06,15.08835266,0.0001107,53.2165,167.9644,88.5033,271.6086,0.00046494,7.118e-05,0.0,0 STARLINK-4606,1 53632U 22104AW  23054.49382220  .00007118  00000-0  46494-3 0  9999,2 53632  53.2165 167.9644 0001107  88.5033 271.6086 15.08835266 28628,6917.895,95.438,540.526,538.994,0.0
53632.0,STARLINK-4606,PAYLOAD,2023-02-23 19:48:02,15.08847031,0.0001386,53.216,166.4789,84.9337,275.1813,0.0013932,0.00021959,0.0,0 STARLINK-4606,1 53632U 22104AW  23054.82502339  .00021959  00000-0  13932-2 0  9990,2 53632  53.2160 166.4789 0001386  84.9337 275.1813 15.08847031 28678,6917.859,95.437,540.683,538.765,0.0
53632.0,STARLINK-4606,PAYLOAD,2023-02-24 06:55:44,15.088403,9.56e-05,53.2161,164.397,79.9708,280.1391,0.0010603,0.00016627,0.0,0 STARLINK-4606,1 53632U 22104AW  23055.28870755  .00016627  00000-0  10603-2 0  9999,2 53632  53.2161 164.3970 0000956  79.9708 280.1391 15.08840300 27720,6917.879,95.438,540.406,539.083,0.0
53632.0,STARLINK-4606,PAYLOAD,2023-02-24 11:41:53,15.08844339,9.5e-05,53.2159,163.5054,80.6688,279.4411,0.0014781,0.00023317,0.0,0 STARLINK-4606,1 53632U 22104AW  23055.48742710  .00023317  00000-0  14781-2 0  9995,2 53632  53.2159 163.5054 0000950  80.6688 279.4411 15.08844339 28777,6917.867,95.437,540.389,539.075,0.0
53632.0,STARLINK-4606,PAYLOAD,2023-02-24 19:38:49,15.08866079,0.0001201,53.2157,162.0177,76.2879,283.8247,0.0018723,0.00029657,0.0,0 STARLINK-4606,1 53632U 22104AW  23055.81862347  .00029657  00000-0  18723-2 0  9994,2 53632  53.2157 162.0177 0001201  76.2879 283.8247 15.08866079 28825,6917.801,95.436,540.497,538.835,0.0
53632.0,STARLINK-4606,PAYLOAD,2023-02-25 00:24:58,15.08836728,3.21e-05,53.217,161.1259,133.9948,226.1071,-0.00041547,-6.893e-05,0.0,0 STARLINK-4606,1 53632U 22104AW  23056.01734199 -.00006893  00000-0 -41547-3 0  9990,2 53632  53.2170 161.1259 0000321 133.9948 226.1071 15.08836728 27834,6917.89,95.438,539.977,539.533,0.0
53632.0,STARLINK-4606,PAYLOAD,2023-02-25 13:08:04,15.08847841,0.0001177,53.2163,158.7472,85.842,274.2707,0.0017513,0.000277,0.0,0 STARLINK-4606,1 53632U 22104AW  23056.54726912  .00027700  00000-0  17513-2 0  9995,2 53632  53.2163 158.7472 0001177  85.8420 274.2707 15.08847841 28935,6917.856,95.437,540.536,538.907,0.0
53632.0,STARLINK-4606,PAYLOAD,2023-02-25 17:54:13,15.08856615,0.0001208,53.2162,157.8543,87.8611,272.252,0.0018524,0.00029329,0.0,0 STARLINK-4606,1 53632U 22104AW  23056.74598751  .00029329  00000-0  18524-2 0  9997,2 53632  53.2162 157.8543 0001208  87.8611 272.2520 15.08856615 27942,6917.83,95.437,540.53,538.859,0.0
53632.0,STARLINK-4606,PAYLOAD,2023-02-26 00:15:45,15.0885405,9.26e-05,53.217,156.6655,92.714,267.3958,0.0013774,0.0002171,0.0,0 STARLINK-4606,1 53632U 22104AW  23057.01094734  .00021710  00000-0  13774-2 0  9998,2 53632  53.2170 156.6655 0000926  92.7140 267.3958 15.08854050 27985,6917.837,95.437,540.343,539.062,0.0
53632.0,STARLINK-4606,PAYLOAD,2023-02-26 11:23:27,15.08869712,0.0001325,53.2155,154.5831,102.1982,257.9159,0.001932,0.00030619,0.0,0 STARLINK-4606,1 53632U 22104AW  23057.47462340  .00030619  00000-0  19320-2 0  9991,2 53632  53.2155 154.5831 0001325 102.1982 257.9159 15.08869712 29076,6917.79,95.436,540.571,538.738,0.0
53632.0,STARLINK-4606,PAYLOAD,2023-02-26 16:09:36,15.08880601,0.0001279,53.2165,153.692,97.2526,262.8612,0.002093,0.00033216,0.0,0 STARLINK-4606,1 53632U 22104AW  23057.67333929  .00033216  00000-0  20930-2 0  9998,2 53632  53.2165 153.6920 0001279  97.2526 262.8612 15.08880601 29105,6917.756,95.435,540.506,538.737,0.0
